{
  "type": "FeatureCollection",
  "features": [
    {
      "type": "Feature",
      "properties": {
        "norad_id": 24876,
        "name": "GPS BIIR-2  (PRN 13)",
        "group": "gps-ops",
        "lat": 33.00108160039247,
        "lon": -99.8462802963016,
        "alt_km": 20139.454793364886,
        "timestamp": "2025-12-02T10:50:47.532517+00:00",
        "meta_object_name": "GPS BIIR-2  (PRN 13)",
        "meta_object_id": "1997-035A",
        "meta_epoch": "2025-12-01T18:20:01.305600",
        "meta_mean_motion": 2.00563436,
        "meta_eccentricity": 0.0096658,
        "meta_inclination": 55.8898,
        "meta_ra_of_asc_node": 106.2982,
        "meta_arg_of_pericenter": 57.0223,
        "meta_mean_anomaly": 303.8787,
        "meta_ephemeris_type": 0,
        "meta_classification_type": "U",
        "meta_norad_cat_id": 24876,
        "meta_element_set_no": 999,
        "meta_rev_at_epoch": 20799,
        "meta_bstar": 0,
        "meta_mean_motion_dot": 3.5e-07,
        "meta_mean_motion_ddot": 0,
        "tle_line1": "1 24876U 97035A   25335.76390400  .00000035  00000+0  00000+0 0  9994",
        "tle_line2": "2 24876  55.8898 106.2982 0096658  57.0223 303.8787  2.00563436207995"
      },
      "geometry": {
        "type": "Point",
        "coordinates": [
          -99.8462802963016,
          33.00108160039247
        ]
      }
    },
    {
      "type": "Feature",
      "properties": {
        "norad_id": 26360,
        "name": "GPS BIIR-4  (PRN 20)",
        "group": "gps-ops",
        "lat": -38.47043799674683,
        "lon": -118.9876158716063,
        "alt_km": 20085.302600731953,
        "timestamp": "2025-12-02T10:50:47.532553+00:00",
        "meta_object_name": "GPS BIIR-4  (PRN 20)",
        "meta_object_id": "2000-025A",
        "meta_epoch": "2025-12-02T03:30:27.357408",
        "meta_mean_motion": 2.00568432,
        "meta_eccentricity": 0.0038771,
        "meta_inclination": 55.0389,
        "meta_ra_of_asc_node": 27.2666,
        "meta_arg_of_pericenter": 240.9431,
        "meta_mean_anomaly": 127.7379,
        "meta_ephemeris_type": 0,
        "meta_classification_type": "U",
        "meta_norad_cat_id": 26360,
        "meta_element_set_no": 999,
        "meta_rev_at_epoch": 18732,
        "meta_bstar": 0,
        "meta_mean_motion_dot": -6.9e-07,
        "meta_mean_motion_ddot": 0,
        "tle_line1": "1 26360U 00025A   25336.14614997 -.00000069  00000+0  00000+0 0  9998",
        "tle_line2": "2 26360  55.0389  27.2666 0038771 240.9431 127.7379  2.00568432187324"
      },
      "geometry": {
        "type": "Point",
        "coordinates": [
          -118.9876158716063,
          -38.47043799674683
        ]
      }
    },
    {
      "type": "Feature",
      "properties": {
        "norad_id": 26407,
        "name": "GPS BIIR-5  (PRN 22)",
        "group": "gps-ops",
        "lat": 50.312161618062085,
        "lon": -79.17516932174622,
        "alt_km": 20382.08699406331,
        "timestamp": "2025-12-02T10:50:47.532570+00:00",
        "meta_object_name": "GPS BIIR-5  (PRN 22)",
        "meta_object_id": "2000-040A",
        "meta_epoch": "2025-12-02T02:20:38.477184",
        "meta_mean_motion": 2.00567697,
        "meta_eccentricity": 0.0126598,
        "meta_inclination": 54.8935,
        "meta_ra_of_asc_node": 222.9923,
        "meta_arg_of_pericenter": 301.6113,
        "meta_mean_anomaly": 231.635,
        "meta_ephemeris_type": 0,
        "meta_classification_type": "U",
        "meta_norad_cat_id": 26407,
        "meta_element_set_no": 999,
        "meta_rev_at_epoch": 18599,
        "meta_bstar": 0,
        "meta_mean_motion_dot": 5.3e-07,
        "meta_mean_motion_ddot": 0,
        "tle_line1": "1 26407U 00040A   25336.09766756  .00000053  00000+0  00000+0 0  9994",
        "tle_line2": "2 26407  54.8935 222.9923 0126598 301.6113 231.6350  2.00567697185994"
      },
      "geometry": {
        "type": "Point",
        "coordinates": [
          -79.17516932174622,
          50.312161618062085
        ]
      }
    },
    {
      "type": "Feature",
      "properties": {
        "norad_id": 27663,
        "name": "GPS BIIR-8  (PRN 16)",
        "group": "gps-ops",
        "lat": -20.66102409847743,
        "lon": 58.134092991494484,
        "alt_km": 20533.975501358233,
        "timestamp": "2025-12-02T10:50:47.532585+00:00",
        "meta_object_name": "GPS BIIR-8  (PRN 16)",
        "meta_object_id": "2003-005A",
        "meta_epoch": "2025-12-01T07:27:05.783040",
        "meta_mean_motion": 2.00571429,
        "meta_eccentricity": 0.0146985,
        "meta_inclination": 54.9264,
        "meta_ra_of_asc_node": 222.833,
        "meta_arg_of_pericenter": 51.6397,
        "meta_mean_anomaly": 48.9538,
        "meta_ephemeris_type": 0,
        "meta_classification_type": "U",
        "meta_norad_cat_id": 27663,
        "meta_element_set_no": 999,
        "meta_rev_at_epoch": 16734,
        "meta_bstar": 0,
        "meta_mean_motion_dot": 4.8e-07,
        "meta_mean_motion_ddot": 0,
        "tle_line1": "1 27663U 03005A   25335.31048360  .00000048  00000+0  00000+0 0  9995",
        "tle_line2": "2 27663  54.9264 222.8330 0146985  51.6397  48.9538  2.00571429167348"
      },
      "geometry": {
        "type": "Point",
        "coordinates": [
          58.134092991494484,
          -20.66102409847743
        ]
      }
    },
    {
      "type": "Feature",
      "properties": {
        "norad_id": 28190,
        "name": "GPS BIIR-11 (PRN 19)",
        "group": "gps-ops",
        "lat": 2.9581963638667483,
        "lon": -74.3154530359287,
        "alt_km": 20457.934158090455,
        "timestamp": "2025-12-02T10:50:47.532599+00:00",
        "meta_object_name": "GPS BIIR-11 (PRN 19)",
        "meta_object_id": "2004-009A",
        "meta_epoch": "2025-11-26T05:14:39.537024",
        "meta_mean_motion": 2.00561394,
        "meta_eccentricity": 0.01080929,
        "meta_inclination": 55.0011,
        "meta_ra_of_asc_node": 283.885,
        "meta_arg_of_pericenter": 167.3745,
        "meta_mean_anomaly": 15.773,
        "meta_ephemeris_type": 0,
        "meta_classification_type": "U",
        "meta_norad_cat_id": 28190,
        "meta_element_set_no": 999,
        "meta_rev_at_epoch": 15887,
        "meta_bstar": 0,
        "meta_mean_motion_dot": -2.4e-07,
        "meta_mean_motion_ddot": 0,
        "tle_line1": "1 28190U 04009A   25330.21851316 -.00000024  00000+0  00000+0 0  9998",
        "tle_line2": "2 28190  55.0011 283.8850 0108092 167.3745  15.7730  2.00561394158873"
      },
      "geometry": {
        "type": "Point",
        "coordinates": [
          -74.3154530359287,
          2.9581963638667483
        ]
      }
    },
    {
      "type": "Feature",
      "properties": {
        "norad_id": 28474,
        "name": "GPS BIIR-13 (PRN 02)",
        "group": "gps-ops",
        "lat": 48.38180231676988,
        "lon": 24.21802791023585,
        "alt_km": 20374.576846331907,
        "timestamp": "2025-12-02T10:50:47.532612+00:00",
        "meta_object_name": "GPS BIIR-13 (PRN 02)",
        "meta_object_id": "2004-045A",
        "meta_epoch": "2025-12-01T10:47:33.520992",
        "meta_mean_motion": 2.00568829,
        "meta_eccentricity": 0.0170514,
        "meta_inclination": 55.2462,
        "meta_ra_of_asc_node": 332.8602,
        "meta_arg_of_pericenter": 308.7614,
        "meta_mean_anomaly": 111.3218,
        "meta_ephemeris_type": 0,
        "meta_classification_type": "U",
        "meta_norad_cat_id": 28474,
        "meta_element_set_no": 999,
        "meta_rev_at_epoch": 15446,
        "meta_bstar": 0,
        "meta_mean_motion_dot": -5.6e-07,
        "meta_mean_motion_ddot": 0,
        "tle_line1": "1 28474U 04045A   25335.44969353 -.00000056  00000+0  00000+0 0  9999",
        "tle_line2": "2 28474  55.2462 332.8602 0170514 308.7614 111.3218  2.00568829154469"
      },
      "geometry": {
        "type": "Point",
        "coordinates": [
          24.21802791023585,
          48.38180231676988
        ]
      }
    },
    {
      "type": "Feature",
      "properties": {
        "norad_id": 28874,
        "name": "GPS BIIRM-1 (PRN 17)",
        "group": "gps-ops",
        "lat": 19.49270597767427,
        "lon": -64.5850472034811,
        "alt_km": 20180.177174038956,
        "timestamp": "2025-12-02T10:50:47.532624+00:00",
        "meta_object_name": "GPS BIIRM-1 (PRN 17)",
        "meta_object_id": "2005-038A",
        "meta_epoch": "2025-11-30T16:16:45.058656",
        "meta_mean_motion": 2.00548966,
        "meta_eccentricity": 0.01328775,
        "meta_inclination": 55.0429,
        "meta_ra_of_asc_node": 281.1867,
        "meta_arg_of_pericenter": 293.3584,
        "meta_mean_anomaly": 248.5646,
        "meta_ephemeris_type": 0,
        "meta_classification_type": "U",
        "meta_norad_cat_id": 28874,
        "meta_element_set_no": 999,
        "meta_rev_at_epoch": 14785,
        "meta_bstar": 0,
        "meta_mean_motion_dot": -4.1e-07,
        "meta_mean_motion_ddot": 0,
        "tle_line1": "1 28874U 05038A   25334.67829929 -.00000041  00000+0  00000+0 0  9998",
        "tle_line2": "2 28874  55.0429 281.1867 0132877 293.3584 248.5646  2.00548966147851"
      },
      "geometry": {
        "type": "Point",
        "coordinates": [
          -64.5850472034811,
          19.49270597767427
        ]
      }
    }
  ]
}